NORAD_CAT_ID,OBJECT_NAME,OBJECT_TYPE,EPOCH,MEAN_MOTION,ECCENTRICITY,INCLINATION,RA_OF_ASC_NODE,ARG_OF_PERICENTER,MEAN_ANOMALY,BSTAR,MEAN_MOTION_DOT,MEAN_MOTION_DDOT,TLE_LINE0,TLE_LINE1,TLE_LINE2,SEMIMAJOR_AXIS,PERIOD,APOGEE,PERIGEE,DECAYED
53392.0,STARLINK-4535,PAYLOAD,2023-09-26 04:55:53,15.0886059,0.0001424,53.2179,184.1033,107.5455,252.5693,0.0002832,4.225e-05,0.0,0 STARLINK-4535,1 53392U 22097E   23269.20547941  .00004225  00000-0  28320-3 0  9997,2 53392  53.2179 184.1033 0001424 107.5455 252.5693 15.08860590 62832,6917.817,95.436,540.668,538.697,0.0
53392.0,STARLINK-4535,PAYLOAD,2023-09-27 03:11:18,15.08839138,0.0001506,53.2174,179.9458,103.1268,256.9892,-6.1159e-05,-1.261e-05,0.0,0 STARLINK-4535,1 53392U 22097E   23270.13285691 -.00001261  00000-0 -61159-4 0  9999,2 53392  53.2174 179.9458 0001506 103.1268 256.9892 15.08839138 62973,6917.883,95.438,540.79,538.706,0.0
53392.0,STARLINK-4535,PAYLOAD,2023-09-27 11:08:15,15.0883035,0.0001884,53.2171,178.4548,82.3633,277.7573,-0.00017944,-3.142e-05,0.0,0 STARLINK-4535,1 53392U 22097E   23270.46406436 -.00003142  00000-0 -17944-3 0  9999,2 53392  53.2171 178.4548 0001884  82.3633 277.7573 15.08830350 63679,6917.91,95.438,541.078,538.472,0.0
53392.0,STARLINK-4535,PAYLOAD,2023-09-28 01:26:44,15.08826211,0.0001708,53.217,175.7793,83.3405,276.7781,-0.00015466,-2.748e-05,0.0,0 STARLINK-4535,1 53392U 22097E   23271.06023172 -.00002748  00000-0 -15466-3 0  9996,2 53392  53.2170 175.7793 0001708  83.3405 276.7781 15.08826211 63764,6917.923,95.438,540.969,538.606,0.0
53392.0,STARLINK-4535,PAYLOAD,2023-09-28 17:20:35,15.0883259,0.0001647,53.2176,172.8026,98.9754,261.1425,0.00027051,4.019e-05,0.0,0 STARLINK-4535,1 53392U 22097E   23271.72263305  .00004019  00000-0  27051-3 0  9997,2 53392  53.2176 172.8026 0001647  98.9754 261.1425 15.08832590 63218,6917.903,95.438,540.907,538.629,0.0
53392.0,STARLINK-4535,PAYLOAD,2023-09-28 22:06:44,15.08848601,0.0001685,53.216,171.9148,79.945,280.1732,0.00037854,5.743e-05,0.0,0 STARLINK-4535,1 53392U 22097E   23271.92134713  .00005743  00000-0  37854-3 0  9996,2 53392  53.2160 171.9148 0001685  79.9450 280.1732 15.08848601 63896,6917.854,95.437,540.885,538.553,0.0
53392.0,STARLINK-4535,PAYLOAD,2023-09-29 02:52:53,15.08858522,0.0001739,53.216,171.0216,80.5846,279.5343,0.00048912,7.509e-05,0.0,0 STARLINK-4535,1 53392U 22097E   23272.12006239  .00007509  00000-0  48912-3 0  9999,2 53392  53.2160 171.0216 0001739  80.5846 279.5343 15.08858522 63275,6917.824,95.436,540.892,538.486,0.0
53392.0,STARLINK-4535,PAYLOAD,2023-09-29 23:32:53,15.08859656,0.0001353,53.2156,167.1575,87.6171,272.4976,0.00036506,5.53e-05,0.0,0 STARLINK-4535,1 53392U 22097E   23272.98117916  .00005530  00000-0  36506-3 0  9996,2 53392  53.2156 167.1575 0001353  87.6171 272.4976 15.08859656 63403,6917.82,95.436,540.621,538.749,0.0
53392.0,STARLINK-4535,PAYLOAD,2023-09-30 17:02:08,15.08835264,0.0001947,53.2158,163.8831,96.2849,263.8365,-0.00014409,-2.58e-05,0.0,0 STARLINK-4535,1 53392U 22097E   23273.70982375 -.00002580  00000-0 -14409-3 0  9998,2 53392  53.2158 163.8831 0001947  96.2849 263.8365 15.08835264 63517,6917.895,95.438,541.107,538.413,0.0
53392.0,STARLINK-4535,PAYLOAD,2023-10-01 02:34:27,15.08839401,0.0001604,53.2156,162.1003,81.2895,278.8279,-3.5861e-05,-8.59e-06,0.0,0 STARLINK-4535,1 53392U 22097E   23274.10726553 -.00000859  00000-0 -35861-4 0  9990,2 53392  53.2156 162.1003 0001604  81.2895 278.8279 15.08839401 64229,6917.882,95.438,540.857,538.638,0.0
53392.0,STARLINK-4535,PAYLOAD,2023-10-01 21:39:05,15.08853431,0.0001512,53.2154,158.5327,76.6737,283.4424,0.00085509,0.00013352,0.0,0 STARLINK-4535,1 53392U 22097E   23274.90214714  .00013352  00000-0  85509-3 0  9992,2 53392  53.2154 158.5327 0001512  76.6737 283.4424 15.08853431 64342,6917.839,95.437,540.75,538.658,0.0
53392.0,STARLINK-4535,PAYLOAD,2023-10-01 23:14:28,15.08862151,0.0001488,53.2157,158.2347,77.4406,282.6753,0.0011339,0.00017815,0.0,0 STARLINK-4535,1 53392U 22097E   23274.96838567  .00017815  00000-0  11339-2 0  9993,2 53392  53.2157 158.2347 0001488  77.4406 282.6753 15.08862151 63702,6917.813,95.436,540.707,538.648,0.0
53392.0,STARLINK-4535,PAYLOAD,2023-10-02 08:46:47,15.08856415,0.0001411,53.2156,156.4506,76.2857,283.8292,0.00054645,8.423e-05,0.0,0 STARLINK-4535,1 53392U 22097E   23275.36582539  .00008423  00000-0  54645-3 0  9996,2 53392  53.2156 156.4506 0001411  76.2857 283.8292 15.08856415 63764,6917.83,95.437,540.671,538.719,0.0
53392.0,STARLINK-4535,PAYLOAD,2023-10-02 19:54:29,15.08848231,0.0001293,53.2155,154.3688,93.1746,266.9394,0.00036531,5.532e-05,0.0,0 STARLINK-4535,1 53392U 22097E   23275.82950460  .00005532  00000-0  36531-3 0  9991,2 53392  53.2155 154.3688 0001293  93.1746 266.9394 15.08848231 63834,6917.855,95.437,540.615,538.826,0.0
53392.0,STARLINK-4535,PAYLOAD,2023-10-03 08:37:34,15.08843739,0.0001188,53.2157,151.9892,85.996,274.1168,0.00053815,8.288e-05,0.0,0 STARLINK-4535,1 53392U 22097E   23276.35942605  .00008288  00000-0  53815-3 0  9997,2 53392  53.2157 151.9892 0001188  85.9960 274.1168 15.08843739 63913,6917.869,95.437,540.556,538.912,0.0
53392.0,STARLINK-4535,PAYLOAD,2023-10-03 19:45:16,15.08830234,0.0001227,53.2148,149.9101,100.8307,259.2823,0.00014418,2.007e-05,0.0,0 STARLINK-4535,1 53392U 22097E   23276.82311073  .00002007  00000-0  14418-3 0  9997,2 53392  53.2148 149.9101 0001227 100.8307 259.2823 15.08830234 63984,6917.91,95.438,540.624,538.926,0.0
53392.0,STARLINK-4535,PAYLOAD,2023-10-03 21:20:39,15.08829515,0.0001402,53.2156,149.611,96.5358,263.5794,1.7443e-06,-2.6e-06,0.0,0 STARLINK-4535,1 53392U 22097E   23276.88935128 -.00000260  00000-0  17443-5 0  9999,2 53392  53.2156 149.6110 0001402  96.5358 263.5794 15.08829515 64641,6917.912,95.438,540.747,538.808,0.0
53392.0,STARLINK-4535,PAYLOAD,2023-10-04 08:28:21,15.08844979,0.0001351,53.2165,147.532,87.4996,272.6151,0.00022229,3.252e-05,0.0,0 STARLINK-4535,1 53392U 22097E   23277.35302881  .00003252  00000-0  22229-3 0  9995,2 53392  53.2165 147.5320 0001351  87.4996 272.6151 15.08844979 64066,6917.865,95.437,540.665,538.796,0.0
53392.0,STARLINK-4535,PAYLOAD,2023-10-04 21:11:26,15.08852495,0.0001345,53.215,145.1506,80.536,279.5784,0.00057958,8.951e-05,0.0,0 STARLINK-4535,1 53392U 22097E   23277.88294778  .00008951  00000-0  57958-3 0  9996,2 53392  53.2150 145.1506 0001345  80.5360 279.5784 15.08852495 64792,6917.842,95.437,540.638,538.777,0.0
53392.0,STARLINK-4535,PAYLOAD,2023-10-05 08:19:08,15.08851891,0.0001089,53.2148,143.069,94.7084,265.4033,0.00048297,7.409e-05,0.0,0 STARLINK-4535,1 53392U 22097E   23278.34662525  .00007409  00000-0  48297-3 0  9990,2 53392  53.2148 143.0690 0001089  94.7084 265.4033 15.08851891 64863,6917.844,95.437,540.462,538.956,0.0
53392.0,STARLINK-4535,PAYLOAD,2023-10-05 21:02:13,15.08838924,0.0001374,53.2143,140.6917,89.6511,270.4638,0.00018996,2.736e-05,0.0,0 STARLINK-4535,1 53392U 22097E   23278.87654995  .00002736  00000-0  18996-3 0  9991,2 53392  53.2143 140.6917 0001374  89.6511 270.4638 15.08838924 64294,6917.884,95.438,540.699,538.798,0.0
53392.0,STARLINK-4535,PAYLOAD,2023-10-06 08:09:56,15.08833272,0.0001492,53.2156,138.6086,87.1672,272.949,0.00043971,6.716e-05,0.0,0 STARLINK-4535,1 53392U 22097E   23279.34023508  .00006716  00000-0  43971-3 0  9997,2 53392  53.2156 138.6086 0001492  87.1672 272.9490 15.08833272 64366,6917.901,95.438,540.798,538.734,0.0
53392.0,STARLINK-4535,PAYLOAD,2023-10-06 20:53:01,15.08836503,0.0001436,53.2151,136.2299,89.9145,270.2011,0.00056216,8.669e-05,0.0,0 STARLINK-4535,1 53392U 22097E   23279.87015887  .00008669  00000-0  56216-3 0  9991,2 53392  53.2151 136.2299 0001436  89.9145 270.2011 15.08836503 65095,6917.891,95.438,540.749,538.763,0.0
53392.0,STARLINK-4535,PAYLOAD,2023-10-07 00:03:47,15.08840846,0.0001511,53.2153,135.6345,92.4271,267.6894,0.00068271,0.00010594,0.0,0 STARLINK-4535,1 53392U 22097E   23280.00263883  .00010594  00000-0  68271-3 0  9993,2 53392  53.2153 135.6345 0001511  92.4271 267.6894 15.08840846 65112,6917.878,95.438,540.788,538.698,0.0
53392.0,STARLINK-4535,PAYLOAD,2023-10-07 20:43:48,15.08854817,0.0001531,53.2157,131.7687,89.2008,270.9159,0.00070598,0.0001097,0.0,0 STARLINK-4535,1 53392U 22097E   23280.86375581  .00010970  00000-0  70598-3 0  9999,2 53392  53.2157 131.7687 0001531  89.2008 270.9159 15.08854817 64591,6917.835,95.437,540.759,538.641,0.0
53392.0,STARLINK-4535,PAYLOAD,2023-10-07 23:54:34,15.08858888,0.0001523,53.2157,131.1737,89.8632,270.2535,0.00075722,0.0001179,0.0,0 STARLINK-4535,1 53392U 22097E   23280.99623401  .00011790  00000-0  75722-3 0  9995,2 53392  53.2157 131.1737 0001523  89.8632 270.2535 15.08858888 65269,6917.823,95.436,540.741,538.634,0.0
53392.0,STARLINK-4535,PAYLOAD,2023-10-08 18:59:12,15.08850155,0.0001663,53.2153,127.603,105.8855,254.232,0.00038551,5.854e-05,0.0,0 STARLINK-4535,1 53392U 22097E   23281.79111206  .00005854  00000-0  38551-3 0  9992,2 53392  53.2153 127.6030 0001663 105.8855 254.2320 15.08850155 64736,6917.849,95.437,540.865,538.564,0.0
53392.0,STARLINK-4535,PAYLOAD,2023-10-08 20:34:35,15.0885255,0.000138,53.2161,127.3074,94.6566,265.4584,0.00033564,5.06e-05,0.0,0 STARLINK-4535,1 53392U 22097E   23281.85735176  .00005060  00000-0  33564-3 0  9995,2 53392  53.2161 127.3074 0001380  94.6566 265.4584 15.08852550 65390,6917.842,95.437,540.662,538.752,0.0
53392.0,STARLINK-4535,PAYLOAD,2023-10-09 14:03:49,15.08859749,0.0001378,53.2164,124.0364,100.7471,259.3677,0.00034975,5.286e-05,0.0,0 STARLINK-4535,1 53392U 22097E   23282.58598397  .00005286  00000-0  34975-3 0  9995,2 53392  53.2164 124.0364 0001378 100.7471 259.3677 15.08859749 65505,6917.82,95.436,540.638,538.732,0.0
53392.0,STARLINK-4535,PAYLOAD,2023-10-09 20:25:21,15.08868885,0.0001397,53.2163,122.8467,97.3996,262.7155,0.00061565,9.531e-05,0.0,0 STARLINK-4535,1 53392U 22097E   23282.85093912  .00009531  00000-0  61565-3 0  9990,2 53392  53.2163 122.8467 0001397  97.3996 262.7155 15.08868885 64899,6917.792,95.436,540.624,538.691,0.0
